{
  "norad_id": 63301,
  "name": "KINEIS-4C",
  "history": [
    {
      "epoch": "2026-03-27T21:54:03.951072",
      "apogee_km": 655.0445868423794,
      "perigee_km": 652.3837343632085,
      "latitude_deg": 84.74448900583374,
      "longitude_deg": 141.70439008018002,
      "semi_major_axis_km": 7031.851160602794,
      "eccentricity": 0.0001892,
      "inclination_deg": 97.9794,
      "raan_deg": 213.0752,
      "arg_perigee_deg": 158.4621,
      "mean_anomaly_deg": 201.6666,
      "mean_motion_rev_day": 14.72306595
    }
  ]
}